{
  "norad_id": 56066,
  "name": "ONEWEB-0577",
  "history": [
    {
      "epoch": "2026-04-13T07:38:40.427808Z",
      "apogee_km": 1199.335605455265,
      "perigee_km": 1196.1802452188613,
      "latitude_deg": -8.926661225225822e-06,
      "longitude_deg": -74.52026966614002,
      "height_km": 1201.5425968908273,
      "semi_major_axis_km": 7575.894925337063,
      "eccentricity": 0.00020825,
      "inclination_deg": 87.9064,
      "raan_deg": 241.6592,
      "arg_perigee_deg": 124.36,
      "mean_anomaly_deg": 235.7728,
      "mean_motion_rev_day": 13.16593929
    },
    {
      "epoch": "2026-04-14T20:07:23.326752Z",
      "apogee_km": 1199.381373086071,
      "perigee_km": 1196.1388891139604,
      "latitude_deg": -5.861054039240603e-05,
      "longitude_deg": 96.500362420745,
      "height_km": 1201.5490914485779,
      "semi_major_axis_km": 7575.897131100016,
      "eccentricity": 0.000214,
      "inclination_deg": 87.9059,
      "raan_deg": 241.3567,
      "arg_perigee_deg": 123.5002,
      "mean_anomaly_deg": 236.6333,
      "mean_motion_rev_day": 13.16593354
    },
    {
      "epoch": "2026-04-15T19:50:03.126048Z",
      "apogee_km": 1199.4177386870797,
      "perigee_km": 1196.0979815593728,
      "latitude_deg": -2.1813066745210212e-05,
      "longitude_deg": 99.664156816051,
      "height_km": 1201.560466531982,
      "semi_major_axis_km": 7575.894860123226,
      "eccentricity": 0.0002191,
      "inclination_deg": 87.9065,
      "raan_deg": 241.1601,
      "arg_perigee_deg": 123.1864,
      "mean_anomaly_deg": 236.9477,
      "mean_motion_rev_day": 13.16593946
    },
    {
      "epoch": "2026-04-16T19:32:42.997056Z",
      "apogee_km": 1199.4400029400194,
      "perigee_km": 1196.0808500211178,
      "latitude_deg": -1.6583492055458282e-05,
      "longitude_deg": 102.82765043349951,
      "height_km": 1201.5588683865737,
      "semi_major_axis_km": 7575.897426480568,
      "eccentricity": 0.0002217,
      "inclination_deg": 87.9066,
      "raan_deg": 240.9635,
      "arg_perigee_deg": 122.5818,
      "mean_anomaly_deg": 237.5527,
      "mean_motion_rev_day": 13.16593277
    },
    {
      "epoch": "2026-04-17T21:04:48.960480Z",
      "apogee_km": 1199.4620256947364,
      "perigee_km": 1196.0581751275204,
      "latitude_deg": 5.825898103127867e-05,
      "longitude_deg": 78.54242215363703,
      "height_km": 1201.5557784337834,
      "semi_major_axis_km": 7575.897100411128,
      "eccentricity": 0.00022465,
      "inclination_deg": 87.9065,
      "raan_deg": 240.7518,
      "arg_perigee_deg": 121.9956,
      "mean_anomaly_deg": 238.1394,
      "mean_motion_rev_day": 13.16593362
    },
    {
      "epoch": "2026-04-18T15:19:10.314048Z",
      "apogee_km": 1199.4817100212467,
      "perigee_km": 1196.0346777080367,
      "latitude_deg": 3.115362337872986e-05,
      "longitude_deg": 164.05318811127418,
      "height_km": 1201.5491751876375,
      "semi_major_axis_km": 7575.895193864641,
      "eccentricity": 0.0002275,
      "inclination_deg": 87.9067,
      "raan_deg": 240.6006,
      "arg_perigee_deg": 121.3676,
      "mean_anomaly_deg": 238.7678,
      "mean_motion_rev_day": 13.16593859
    },
    {
      "epoch": "2026-04-19T15:01:50.174688Z",
      "apogee_km": 1199.526124302066,
      "perigee_km": 1195.9927262093252,
      "latitude_deg": -1.8697737518690085e-05,
      "longitude_deg": 167.2167203660566,
      "height_km": 1201.5516445050432,
      "semi_major_axis_km": 7575.896425255695,
      "eccentricity": 0.0002332,
      "inclination_deg": 87.9067,
      "raan_deg": 240.404,
      "arg_perigee_deg": 120.5684,
      "mean_anomaly_deg": 239.5677,
      "mean_motion_rev_day": 13.16593538
    },
    {
      "epoch": "2026-04-20T09:16:11.541216Z",
      "apogee_km": 1199.5497842181621,
      "perigee_km": 1195.9632047200093,
      "latitude_deg": -3.0041310517653697e-05,
      "longitude_deg": -107.27256871026363,
      "height_km": 1201.5434342562733,
      "semi_major_axis_km": 7575.893494469085,
      "eccentricity": 0.00023671,
      "inclination_deg": 87.9069,
      "raan_deg": 240.2528,
      "arg_perigee_deg": 119.876,
      "mean_anomaly_deg": 240.2606,
      "mean_motion_rev_day": 13.16594302
    },
    {
      "epoch": "2026-04-21T19:55:28.244928Z",
      "apogee_km": 1199.567733285653,
      "perigee_km": 1195.9449410918096,
      "latitude_deg": -3.6304756855836437e-05,
      "longitude_deg": 91.19751324174479,
      "height_km": 1201.5325114961638,
      "semi_major_axis_km": 7575.8933371887315,
      "eccentricity": 0.0002391,
      "inclination_deg": 87.9077,
      "raan_deg": 239.9657,
      "arg_perigee_deg": 119.159,
      "mean_anomaly_deg": 240.978,
      "mean_motion_rev_day": 13.16594343
    },
    {
      "epoch": "2026-04-22T14:09:49.677984Z",
      "apogee_km": 1199.5951604342645,
      "perigee_km": 1195.9208513564054,
      "latitude_deg": -7.516710988883941e-05,
      "longitude_deg": 176.70804465201124,
      "height_km": 1201.534909329317,
      "semi_major_axis_km": 7575.895005895335,
      "eccentricity": 0.0002425,
      "inclination_deg": 87.9079,
      "raan_deg": 239.8146,
      "arg_perigee_deg": 118.7399,
      "mean_anomaly_deg": 241.3975,
      "mean_motion_rev_day": 13.16593908
    },
    {
      "epoch": "2026-04-23T13:52:29.468640Z",
      "apogee_km": 1199.613985223692,
      "perigee_km": 1195.8964949014944,
      "latitude_deg": 5.223432296022006e-05,
      "longitude_deg": 179.87207451602904,
      "height_km": 1201.5194930158939,
      "semi_major_axis_km": 7575.892240062593,
      "eccentricity": 0.00024535,
      "inclination_deg": 87.9081,
      "raan_deg": 239.6182,
      "arg_perigee_deg": 117.9366,
      "mean_anomaly_deg": 242.2014,
      "mean_motion_rev_day": 13.16594629
    },
    {
      "epoch": "2026-04-24T20:52:53.908032Z",
      "apogee_km": 1199.6453455203691,
      "perigee_km": 1195.8710345366972,
      "latitude_deg": -8.391848562805728e-05,
      "longitude_deg": 73.23993366955428,
      "height_km": 1201.515961697545,
      "semi_major_axis_km": 7575.895190028533,
      "eccentricity": 0.0002491,
      "inclination_deg": 87.9082,
      "raan_deg": 239.3613,
      "arg_perigee_deg": 117.2608,
      "mean_anomaly_deg": 242.8776,
      "mean_motion_rev_day": 13.1659386
    },
    {
      "epoch": "2026-04-25T18:46:07.525056Z",
      "apogee_km": 1199.6569045902233,
      "perigee_km": 1195.856836224826,
      "latitude_deg": -1.300376755108069e-05,
      "longitude_deg": 103.85282657682885,
      "height_km": 1201.5000838323538,
      "semi_major_axis_km": 7575.893870407524,
      "eccentricity": 0.0002508,
      "inclination_deg": 87.9082,
      "raan_deg": 239.1798,
      "arg_perigee_deg": 116.5712,
      "mean_anomaly_deg": 243.5676,
      "mean_motion_rev_day": 13.16594204
    },
    {
      "epoch": "2026-04-26T20:18:13.466880Z",
      "apogee_km": 1199.6914001776559,
      "perigee_km": 1195.8245118742025,
      "latitude_deg": 8.963471554589932e-06,
      "longitude_deg": 79.5678857094244,
      "height_km": 1201.4853828948615,
      "semi_major_axis_km": 7575.894956025929,
      "eccentricity": 0.00025521,
      "inclination_deg": 87.9082,
      "raan_deg": 238.9683,
      "arg_perigee_deg": 115.5612,
      "mean_anomaly_deg": 244.5783,
      "mean_motion_rev_day": 13.16593921
    },
    {
      "epoch": "2026-04-27T20:00:53.248032Z",
      "apogee_km": 1199.7162673155653,
      "perigee_km": 1195.799529653049,
      "latitude_deg": 7.158545665349854e-05,
      "longitude_deg": 82.7319557208556,
      "height_km": 1201.4680554868803,
      "semi_major_axis_km": 7575.894898484307,
      "eccentricity": 0.0002585,
      "inclination_deg": 87.9084,
      "raan_deg": 238.7719,
      "arg_perigee_deg": 114.6589,
      "mean_anomaly_deg": 245.4812,
      "mean_motion_rev_day": 13.16593936
    },
    {
      "epoch": "2026-04-28T19:43:33.025728Z",
      "apogee_km": 1199.7261577097815,
      "perigee_km": 1195.7866931285635,
      "latitude_deg": 8.490725812851996e-05,
      "longitude_deg": 85.8959383281811,
      "height_km": 1201.4521656900715,
      "semi_major_axis_km": 7575.893425419173,
      "eccentricity": 0.00026,
      "inclination_deg": 87.9085,
      "raan_deg": 238.5754,
      "arg_perigee_deg": 114.0488,
      "mean_anomaly_deg": 246.0916,
      "mean_motion_rev_day": 13.1659432
    },
    {
      "epoch": "2026-04-29T19:26:12.787008Z",
      "apogee_km": 1199.7328203717816,
      "perigee_km": 1195.7782044802952,
      "latitude_deg": 9.994820673810745e-06,
      "longitude_deg": 89.06008593060578,
      "height_km": 1201.4285617667347,
      "semi_major_axis_km": 7575.892512426038,
      "eccentricity": 0.000261,
      "inclination_deg": 87.9087,
      "raan_deg": 238.379,
      "arg_perigee_deg": 113.2345,
      "mean_anomaly_deg": 246.9061,
      "mean_motion_rev_day": 13.16594558
    },
    {
      "epoch": "2026-04-30T08:12:15.745824Z",
      "apogee_km": 1199.7385789374266,
      "perigee_km": 1195.7719932542732,
      "latitude_deg": 1.4532188067236422e-05,
      "longitude_deg": -103.08228453969721,
      "height_km": 1201.4130815367691,
      "semi_major_axis_km": 7575.89228609585,
      "eccentricity": 0.00026179,
      "inclination_deg": 87.9089,
      "raan_deg": 238.2733,
      "arg_perigee_deg": 112.6829,
      "mean_anomaly_deg": 247.4579,
      "mean_motion_rev_day": 13.16594617
    },
    {
      "epoch": "2026-05-02T07:37:35.348736Z",
      "apogee_km": 1199.7712442200718,
      "perigee_km": 1195.7378395631695,
      "latitude_deg": -6.160387847389133e-05,
      "longitude_deg": -96.75402539912943,
      "height_km": 1201.3740623190367,
      "semi_major_axis_km": 7575.89154189162,
      "eccentricity": 0.0002662,
      "inclination_deg": 87.9091,
      "raan_deg": 237.8808,
      "arg_perigee_deg": 111.12,
      "mean_anomaly_deg": 249.0215,
      "mean_motion_rev_day": 13.16594811
    }
  ]
}